[{"OBJECT_NAME":"COSMOS 2598 (RODNIK-S 23)","OBJECT_ID":"2025-273B","EPOCH":"2026-03-09T23:00:51.944256","MEAN_MOTION":12.42915673,"ECCENTRICITY":0.00110403,"INCLINATION":82.5002,"RA_OF_ASC_NODE":232.2095,"ARG_OF_PERICENTER":47.8874,"MEAN_ANOMALY":312.3142,"EPHEMERIS_TYPE":0,"CLASSIFICATION_TYPE":"U","NORAD_CAT_ID":66648,"ELEMENT_SET_NO":999,"REV_AT_EPOCH":1297,"BSTAR":0.00011619119,"MEAN_MOTION_DOT":2.6e-7,"MEAN_MOTION_DDOT":0},{"OBJECT_NAME":"SL-8 DEB","OBJECT_ID":"1991-009AT","EPOCH":"2026-03-09T12:32:10.346208","MEAN_MOTION":12.28923936,"ECCENTRICITY":0.01031814,"INCLINATION":74.0592,"RA_OF_ASC_NODE":88.3849,"ARG_OF_PERICENTER":94.9755,"MEAN_ANOMALY":59.3195,"EPHEMERIS_TYPE":0,"CLASSIFICATION_TYPE":"U","NORAD_CAT_ID":21180,"ELEMENT_SET_NO":999,"REV_AT_EPOCH":56845,"BSTAR":0.00048906586,"MEAN_MOTION_DOT":4.3e-7,"MEAN_MOTION_DDOT":0}]
